[{"OBJECT_NAME":"ONEWEB-0685","OBJECT_ID":"2022-166AP","EPOCH":"2026-06-07T11:30:14.020416","MEAN_MOTION":13.21841501,"ECCENTRICITY":0.0001778,"INCLINATION":87.9253,"RA_OF_ASC_NODE":245.9121,"ARG_OF_PERICENTER":80.1573,"MEAN_ANOMALY":279.9761,"EPHEMERIS_TYPE":0,"CLASSIFICATION_TYPE":"U","NORAD_CAT_ID":54679,"ELEMENT_SET_NO":999,"REV_AT_EPOCH":17013,"BSTAR":0.0025901,"MEAN_MOTION_DOT":1.083e-05,"MEAN_MOTION_DDOT":0.0},{"OBJECT_NAME":"ONEWEB-0712","OBJECT_ID":"2022-166AQ","EPOCH":"2026-06-07T11:37:32.269728","MEAN_MOTION":13.16594085,"ECCENTRICITY":0.0001716,"INCLINATION":87.9105,"RA_OF_ASC_NODE":230.701,"ARG_OF_PERICENTER":87.5318,"MEAN_ANOMALY":272.6009,"EPHEMERIS_TYPE":0,"CLASSIFICATION_TYPE":"U","NORAD_CAT_ID":54680,"ELEMENT_SET_NO":999,"REV_AT_EPOCH":17078,"BSTAR":0.00020633,"MEAN_MOTION_DOT":9.2e-07,"MEAN_MOTION_DDOT":0.0},{"OBJECT_NAME":"ONEWEB-0714","OBJECT_ID":"2022-166AR","EPOCH":"2026-06-07T11:37:07.531680","MEAN_MOTION":13.21840053,"ECCENTRICITY":0.0002077,"INCLINATION":87.9257,"RA_OF_ASC_NODE":245.9085,"ARG_OF_PERICENTER":95.0193,"MEAN_ANOMALY":265.1178,"EPHEMERIS_TYPE":0,"CLASSIFICATION_TYPE":"U","NORAD_CAT_ID":54681,"ELEMENT_SET_NO":999,"REV_AT_EPOCH":17025,"BSTAR":-0.004162600000000001,"MEAN_MOTION_DOT":-1.706e-05,"MEAN_MOTION_DDOT":0.0},{"OBJECT_NAME":"ONEWEB-0532","OBJECT_ID":"2023-004A","EPOCH":"2026-06-07T07:31:27.319296","MEAN_MOTION":13.17648109,"ECCENTRICITY":0.0002166,"INCLINATION":87.9141,"RA_OF_ASC_NODE":7.8295,"ARG_OF_PERICENTER":90.993,"MEAN_ANOMALY":269.145,"EPHEMERIS_TYPE":0,"CLASSIFICATION_TYPE":"U","NORAD_CAT_ID":55140,"ELEMENT_SET_NO":999,"REV_AT_EPOCH":16628,"BSTAR":0.00013811999999999999,"MEAN_MOTION_DOT":6.7e-07,"MEAN_MOTION_DDOT":0.0},{"OBJECT_NAME":"ONEWEB-0533","OBJECT_ID":"2023-004B","EPOCH":"2026-06-07T05:47:56.789664","MEAN_MOTION":13.12442041,"ECCENTRICITY":0.0001902,"INCLINATION":87.8947,"RA_OF_ASC_NODE":352.6489,"ARG_OF_PERICENTER":83.0005,"MEAN_ANOMALY":277.1339,"EPHEMERIS_TYPE":0,"CLASSIFICATION_TYPE":"U","NORAD_CAT_ID":55141,"ELEMENT_SET_NO":999,"REV_AT_EPOCH":16675,"BSTAR":-0.00016780999999999998,"MEAN_MOTION_DOT":-4.8e-07,"MEAN_MOTION_DDOT":0.0},{"OBJECT_NAME":"ONEWEB-0541","OBJECT_ID":"2023-004C","EPOCH":"2026-06-07T08:09:37.034208","MEAN_MOTION":13.1141763,"ECCENTRICITY":0.0001783,"INCLINATION":87.8905,"RA_OF_ASC_NODE":23.0172,"ARG_OF_PERICENTER":90.4181,"MEAN_ANOMALY":269.7152,"EPHEMERIS_TYPE":0,"CLASSIFICATION_TYPE":"U","NORAD_CAT_ID":55142,"ELEMENT_SET_NO":999,"REV_AT_EPOCH":16465,"BSTAR":-0.0013885,"MEAN_MOTION_DOT":-4.79e-06,"MEAN_MOTION_DDOT":0.0},{"OBJECT_NAME":"ONEWEB-0543","OBJECT_ID":"2023-004D","EPOCH":"2026-06-07T05:22:37.375680","MEAN_MOTION":13.1868533,"ECCENTRICITY":0.0001702,"INCLINATION":87.9157,"RA_OF_ASC_NODE":337.4532,"ARG_OF_PERICENTER":87.135,"MEAN_ANOMALY":272.9977,"EPHEMERIS_TYPE":0,"CLASSIFICATION_TYPE":"U","NORAD_CAT_ID":55143,"ELEMENT_SET_NO":999,"REV_AT_EPOCH":16838,"BSTAR":-0.00048788,"MEAN_MOTION_DOT":-1.79e-06,"MEAN_MOTION_DDOT":0.0},{"OBJECT_NAME":"ONEWEB-0544","OBJECT_ID":"2023-004E","EPOCH":"2026-06-07T05:12:55.234944","MEAN_MOTION":13.18686219,"ECCENTRICITY":0.0001689,"INCLINATION":87.9153,"RA_OF_ASC_NODE":337.454,"ARG_OF_PERICENTER":95.1807,"MEAN_ANOMALY":264.9518,"EPHEMERIS_TYPE":0,"CLASSIFICATION_TYPE":"U","NORAD_CAT_ID":55144,"ELEMENT_SET_NO":999,"REV_AT_EPOCH":16838,"BSTAR":0.00014203,"MEAN_MOTION_DOT":6.9e-07,"MEAN_MOTION_DDOT":0.0},{"OBJECT_NAME":"ONEWEB-0560","OBJECT_ID":"2023-004F","EPOCH":"2026-06-07T05:03:12.808224","MEAN_MOTION":13.18686616,"ECCENTRICITY":0.0001545,"INCLINATION":87.916,"RA_OF_ASC_NODE":337.4447,"ARG_OF_PERICENTER":93.4926,"MEAN_ANOMALY":266.6383,"EPHEMERIS_TYPE":0,"CLASSIFICATION_TYPE":"U","NORAD_CAT_ID":55145,"ELEMENT_SET_NO":999,"REV_AT_EPOCH":16839,"BSTAR":0.00025289,"MEAN_MOTION_DOT":1.13e-06,"MEAN_MOTION_DDOT":0.0},{"OBJECT_NAME":"ONEWEB-0565","OBJECT_ID":"2023-004G","EPOCH":"2026-06-07T04:53:29.378400","MEAN_MOTION":13.18685757,"ECCENTRICITY":0.0001857,"INCLINATION":87.9147,"RA_OF_ASC_NODE":337.4748,"ARG_OF_PERICENTER":104.5136,"MEAN_ANOMALY":255.6202,"EPHEMERIS_TYPE":0,"CLASSIFICATION_TYPE":"U","NORAD_CAT_ID":55146,"ELEMENT_SET_NO":999,"REV_AT_EPOCH":16838,"BSTAR":-0.00018918,"MEAN_MOTION_DOT":-6.2e-07,"MEAN_MOTION_DDOT":0.0},{"OBJECT_NAME":"ONEWEB-0567","OBJECT_ID":"2023-004H","EPOCH":"2026-06-07T04:43:47.178048","MEAN_MOTION":13.18685601,"ECCENTRICITY":0.0001707,"INCLINATION":87.9157,"RA_OF_ASC_NODE":337.4596,"ARG_OF_PERICENTER":102.1882,"MEAN_ANOMALY":257.9442,"EPHEMERIS_TYPE":0,"CLASSIFICATION_TYPE":"U","NORAD_CAT_ID":55147,"ELEMENT_SET_NO":999,"REV_AT_EPOCH":16838,"BSTAR":-6.958800000000001e-05,"MEAN_MOTION_DOT":-1.5e-07,"MEAN_MOTION_DDOT":0.0},{"OBJECT_NAME":"ONEWEB-0569","OBJECT_ID":"2023-004J","EPOCH":"2026-06-06T17:22:45.857568","MEAN_MOTION":13.13469593,"ECCENTRICITY":0.0001162,"INCLINATION":87.8954,"RA_OF_ASC_NODE":322.303,"ARG_OF_PERICENTER":119.6875,"MEAN_ANOMALY":240.437,"EPHEMERIS_TYPE":0,"CLASSIFICATION_TYPE":"U","NORAD_CAT_ID":55148,"ELEMENT_SET_NO":999,"REV_AT_EPOCH":16880,"BSTAR":-0.00049409,"MEAN_MOTION_DOT":-1.68e-06,"MEAN_MOTION_DDOT":0.0},{"OBJECT_NAME":"ONEWEB-0570","OBJECT_ID":"2023-004K","EPOCH":"2026-06-07T04:31:37.485120","MEAN_MOTION":13.18684391,"ECCENTRICITY":0.0002161,"INCLINATION":87.9155,"RA_OF_ASC_NODE":337.4592,"ARG_OF_PERICENTER":97.238,"MEAN_ANOMALY":262.8997,"EPHEMERIS_TYPE":0,"CLASSIFICATION_TYPE":"U","NORAD_CAT_ID":55149,"ELEMENT_SET_NO":999,"REV_AT_EPOCH":16837,"BSTAR":-8.7662e-05,"MEAN_MOTION_DOT":-2.2e-07,"MEAN_MOTION_DDOT":0.0},{"OBJECT_NAME":"ONEWEB-0571","OBJECT_ID":"2023-004L","EPOCH":"2026-06-07T06:11:11.823936","MEAN_MOTION":13.18675222,"ECCENTRICITY":0.0001808,"INCLINATION":87.9157,"RA_OF_ASC_NODE":337.445,"ARG_OF_PERICENTER":129.404,"MEAN_ANOMALY":230.7252,"EPHEMERIS_TYPE":0,"CLASSIFICATION_TYPE":"U","NORAD_CAT_ID":55150,"ELEMENT_SET_NO":999,"REV_AT_EPOCH":16839,"BSTAR":-0.0031822,"MEAN_MOTION_DOT":-1.241e-05,"MEAN_MOTION_DDOT":0.0},{"OBJECT_NAME":"ONEWEB-0572","OBJECT_ID":"2023-004M","EPOCH":"2026-06-07T08:15:11.386656","MEAN_MOTION":13.17648053,"ECCENTRICITY":0.0001846,"INCLINATION":87.9139,"RA_OF_ASC_NODE":7.8239,"ARG_OF_PERICENTER":93.6258,"MEAN_ANOMALY":266.5085,"EPHEMERIS_TYPE":0,"CLASSIFICATION_TYPE":"U","NORAD_CAT_ID":55151,"ELEMENT_SET_NO":999,"REV_AT_EPOCH":16618,"BSTAR":-4.7581000000000004e-05,"MEAN_MOTION_DOT":-6e-08,"MEAN_MOTION_DDOT":0.0},{"OBJECT_NAME":"ONEWEB-0573","OBJECT_ID":"2023-004N","EPOCH":"2026-06-07T06:01:28.491744","MEAN_MOTION":13.18685893,"ECCENTRICITY":0.0001809,"INCLINATION":87.9157,"RA_OF_ASC_NODE":337.4476,"ARG_OF_PERICENTER":119.5581,"MEAN_ANOMALY":240.5731,"EPHEMERIS_TYPE":0,"CLASSIFICATION_TYPE":"U","NORAD_CAT_ID":55152,"ELEMENT_SET_NO":999,"REV_AT_EPOCH":16838,"BSTAR":-0.00020213000000000002,"MEAN_MOTION_DOT":-6.7e-07,"MEAN_MOTION_DDOT":0.0}]