ONEWEB-0685             
1 54679U 22166AP  26158.47932894  .00001083  00000+0  25901-2 0  9996
2 54679  87.9253 245.9121 0001778  80.1573 279.9761 13.21841501170137
ONEWEB-0712             
1 54680U 22166AQ  26158.48440127  .00000092  00000+0  20633-3 0  9999
2 54680  87.9105 230.7010 0001716  87.5318 272.6009 13.16594085170786
ONEWEB-0714             
1 54681U 22166AR  26158.48411495 -.00001706  00000+0 -41626-2 0  9995
2 54681  87.9257 245.9085 0002077  95.0193 265.1178 13.21840053170252
ONEWEB-0532             
1 55140U 23004A   26158.31351064  .00000067  00000+0  13812-3 0  9999
2 55140  87.9141   7.8295 0002166  90.9930 269.1450 13.17648109166283
ONEWEB-0533             
1 55141U 23004B   26158.24162951 -.00000048  00000+0 -16781-3 0  9996
2 55141  87.8947 352.6489 0001902  83.0005 277.1339 13.12442041166755
ONEWEB-0541             
1 55142U 23004C   26158.34001197 -.00000479  00000+0 -13885-2 0  9991
2 55142  87.8905  23.0172 0001783  90.4181 269.7152 13.11417630164654
ONEWEB-0543             
1 55143U 23004D   26158.22404370 -.00000179  00000+0 -48788-3 0  9997
2 55143  87.9157 337.4532 0001702  87.1350 272.9977 13.18685330168385
ONEWEB-0544             
1 55144U 23004E   26158.21730596  .00000069  00000+0  14203-3 0  9990
2 55144  87.9153 337.4540 0001689  95.1807 264.9518 13.18686219168380
ONEWEB-0560             
1 55145U 23004F   26158.21056491  .00000113  00000+0  25289-3 0  9992
2 55145  87.9160 337.4447 0001545  93.4926 266.6383 13.18686616168390
ONEWEB-0565             
1 55146U 23004G   26158.20381225 -.00000062  00000+0 -18918-3 0  9994
2 55146  87.9147 337.4748 0001857 104.5136 255.6202 13.18685757168385
ONEWEB-0567             
1 55147U 23004H   26158.19707382 -.00000015  00000+0 -69588-4 0  9997
2 55147  87.9157 337.4596 0001707 102.1882 257.9442 13.18685601168383
ONEWEB-0569             
1 55148U 23004J   26157.72414187 -.00000168  00000+0 -49409-3 0  9992
2 55148  87.8954 322.3030 0001162 119.6875 240.4370 13.13469593168803
ONEWEB-0570             
1 55149U 23004K   26158.18862830 -.00000022  00000+0 -87662-4 0  9999
2 55149  87.9155 337.4592 0002161  97.2380 262.8997 13.18684391168375
ONEWEB-0571             
1 55150U 23004L   26158.25777574 -.00001241  00000+0 -31822-2 0  9998
2 55150  87.9157 337.4450 0001808 129.4040 230.7252 13.18675222168393
ONEWEB-0572             
1 55151U 23004M   26158.34388179 -.00000006  00000+0 -47581-4 0  9997
2 55151  87.9139   7.8239 0001846  93.6258 266.5085 13.17648053166189
ONEWEB-0573             
1 55152U 23004N   26158.25102421 -.00000067  00000+0 -20213-3 0  9991
2 55152  87.9157 337.4476 0001809 119.5581 240.5731 13.18685893168389
